NORAD_CAT_ID,OBJECT_NAME,OBJECT_TYPE,EPOCH,MEAN_MOTION,ECCENTRICITY,INCLINATION,RA_OF_ASC_NODE,ARG_OF_PERICENTER,MEAN_ANOMALY,BSTAR,MEAN_MOTION_DOT,MEAN_MOTION_DDOT,TLE_LINE0,TLE_LINE1,TLE_LINE2,SEMIMAJOR_AXIS,PERIOD,APOGEE,PERIGEE,DECAYED
55777.0,STARLINK-5814,PAYLOAD,2024-01-25 09:23:34,14.98330712,0.0002779,70.0011,16.6198,261.3916,98.6929,-1.6677e-05,-2.92e-06,0.0,0 STARLINK-5814,1 55777U 23028AN  24025.39136650 -.00000292  00000-0 -16677-4 0  9998,2 55777  70.0011  16.6198 0002779 261.3916  98.6929 14.98330712 50552,6950.191,96.107,573.987,570.124,0.0
55777.0,STARLINK-5814,PAYLOAD,2024-01-26 03:01:02,14.98329022,0.0002835,70.001,14.7682,262.8447,97.239,2.6859e-05,2.28e-06,0.0,0 STARLINK-5814,1 55777U 23028AN  24026.12572612  .00000228  00000-0  26859-4 0  9992,2 55777  70.0010  14.7682 0002835 262.8447  97.2390 14.98329022 50667,6950.196,96.107,574.031,570.091,0.0
55777.0,STARLINK-5814,PAYLOAD,2024-01-26 09:25:35,14.98328587,0.0002834,70.0011,14.095,263.4306,96.6531,1.9856e-05,1.44e-06,0.0,0 STARLINK-5814,1 55777U 23028AN  24026.39276683  .00000144  00000-0  19856-4 0  9996,2 55777  70.0011  14.0950 0002834 263.4306  96.6531 14.98328587 50709,6950.197,96.107,574.032,570.093,0.0
55777.0,STARLINK-5814,PAYLOAD,2024-01-27 03:03:04,14.98326346,0.0002804,70.0011,12.2438,263.5257,96.5583,-4.2684e-05,-6.02e-06,0.0,0 STARLINK-5814,1 55777U 23028AN  24027.12713097 -.00000602  00000-0 -42684-4 0  9999,2 55777  70.0011  12.2438 0002804 263.5257  96.5583 14.98326346 50812,6950.204,96.107,574.018,570.12,0.0
55777.0,STARLINK-5814,PAYLOAD,2024-01-27 09:27:36,14.98329221,0.0002762,70.0012,11.5701,261.0384,99.0462,-4.9374e-06,-1.52e-06,0.0,0 STARLINK-5814,1 55777U 23028AN  24027.39416826 -.00000152  00000-0 -49374-5 0  9992,2 55777  70.0012  11.5701 0002762 261.0384  99.0462 14.98329221 50858,6950.195,96.107,573.98,570.141,0.0
55777.0,STARLINK-5814,PAYLOAD,2024-01-28 04:41:13,14.98327898,0.0002678,70.0015,9.5507,257.8682,102.2177,-1.4002e-06,-1.1e-06,0.0,0 STARLINK-5814,1 55777U 23028AN  24028.19528945 -.00000110  00000-0 -14002-5 0  9991,2 55777  70.0015   9.5507 0002678 257.8682 102.2177 14.98327898 50973,6950.199,96.107,573.926,570.203,0.0
55777.0,STARLINK-5814,PAYLOAD,2024-01-28 09:29:37,14.98328549,0.0002663,70.0016,9.0457,257.4982,102.588,6.868e-06,-1.1e-07,0.0,0 STARLINK-5814,1 55777U 23028AN  24028.39556899 -.00000011  00000-0  68680-5 0  9992,2 55777  70.0016   9.0457 0002663 257.4982 102.5880 14.98328549 51009,6950.197,96.107,573.913,570.212,0.0
55777.0,STARLINK-5814,PAYLOAD,2024-01-29 07:55:30,14.98290725,0.0002536,70.0011,6.6877,261.9555,98.1316,0.00078126,9.232e-05,0.0,0 STARLINK-5814,1 55777U 23028AN  24029.33021363  .00009232  00000-0  78126-3 0  9997,2 55777  70.0011   6.6877 0002536 261.9555  98.1316 14.98290725 51141,6950.314,96.11,573.942,570.417,0.0
55777.0,STARLINK-5814,PAYLOAD,2024-01-29 22:20:42,14.9833077,0.0002706,70.0012,5.1731,266.7633,93.3216,1.8674e-05,1.3e-06,0.0,0 STARLINK-5814,1 55777U 23028AN  24029.93104638  .00000130  00000-0  18674-4 0  9991,2 55777  70.0012   5.1731 0002706 266.7633  93.3216 14.98330770 51235,6950.191,96.107,573.936,570.175,0.0
55777.0,STARLINK-5814,PAYLOAD,2024-01-30 03:09:06,14.98329964,0.0002726,70.0012,4.668,266.5207,93.564,6.1221e-06,-2e-07,0.0,0 STARLINK-5814,1 55777U 23028AN  24030.13132700 -.00000020  00000-0  61221-5 0  9992,2 55777  70.0012   4.6680 0002726 266.5207  93.5640 14.98329964 51268,6950.193,96.107,573.953,570.163,0.0
55777.0,STARLINK-5814,PAYLOAD,2024-01-30 07:57:30,14.98332344,0.0002712,70.0014,4.1633,267.9464,92.1385,3.3207e-05,3.03e-06,0.0,0 STARLINK-5814,1 55777U 23028AN  24030.33160460  .00000303  00000-0  33207-4 0  9993,2 55777  70.0014   4.1633 0002712 267.9464  92.1385 14.98332344 51298,6950.186,96.107,573.936,570.166,0.0
55777.0,STARLINK-5814,PAYLOAD,2024-01-30 22:22:43,14.98332783,0.0002698,70.0014,2.6488,270.6441,89.4409,-2.5501e-05,-3.97e-06,0.0,0 STARLINK-5814,1 55777U 23028AN  24030.93244510 -.00000397  00000-0 -25501-4 0  9991,2 55777  70.0014   2.6488 0002698 270.6441  89.4409 14.98332783 51381,6950.184,96.107,573.924,570.174,0.0
55777.0,STARLINK-5814,PAYLOAD,2024-01-31 03:11:07,14.98319968,0.000265,70.0016,2.1436,271.654,88.4315,0.00017204,1.96e-05,0.0,0 STARLINK-5814,1 55777U 23028AN  24031.13272688  .00001960  00000-0  17204-3 0  9996,2 55777  70.0016   2.1436 0002650 271.6540  88.4315 14.98319968 51419,6950.224,96.108,573.931,570.247,0.0
55777.0,STARLINK-5814,PAYLOAD,2024-01-31 07:59:31,14.98332525,0.00027,70.0015,1.6389,270.0448,90.0402,-2.494e-05,-3.91e-06,0.0,0 STARLINK-5814,1 55777U 23028AN  24031.33300446 -.00000391  00000-0 -24940-4 0  9997,2 55777  70.0015   1.6389 0002700 270.0448  90.0402 14.98332525 51448,6950.185,96.107,573.927,570.174,0.0
55777.0,STARLINK-5814,PAYLOAD,2024-02-01 08:01:32,14.98330029,0.0002636,70.0018,359.1146,268.1983,91.8874,-8.3365e-06,-1.92e-06,0.0,0 STARLINK-5814,1 55777U 23028AN  24032.33440484 -.00000192  00000-0 -83365-5 0  9991,2 55777  70.0018 359.1146 0002636 268.1983  91.8874 14.98330029 51598,6950.193,96.107,573.89,570.226,0.0
55777.0,STARLINK-5814,PAYLOAD,2024-02-02 08:03:33,14.98331015,0.0002589,70.0018,356.5892,260.0051,100.0816,2.3707e-05,1.9e-06,0.0,0 STARLINK-5814,1 55777U 23028AN  24033.33580239  .00000190  00000-0  23707-4 0  9994,2 55777  70.0018 356.5892 0002589 260.0051 100.0816 14.98331015 51743,6950.19,96.107,573.854,570.255,0.0
55777.0,STARLINK-5814,PAYLOAD,2024-02-02 22:28:46,14.98328581,0.0002547,70.0019,355.0739,258.6199,101.4674,9.8285e-07,-8.1e-07,0.0,0 STARLINK-5814,1 55777U 23028AN  24033.93664445 -.00000081  00000-0  98285-6 0  9997,2 55777  70.0019 355.0739 0002547 258.6199 101.4674 14.98328581 51839,6950.197,96.107,573.832,570.292,0.0
55777.0,STARLINK-5814,PAYLOAD,2024-02-03 06:29:26,14.98327009,0.000261,70.0019,354.233,254.331,105.7561,-1.827e-05,-3.11e-06,0.0,0 STARLINK-5814,1 55777U 23028AN  24034.27044613 -.00000311  00000-0 -18270-4 0  9995,2 55777  70.0019 354.2330 0002610 254.3310 105.7561 14.98327009 51887,6950.202,96.107,573.881,570.253,0.0
55777.0,STARLINK-5814,PAYLOAD,2024-02-03 22:30:46,14.98331287,0.0002658,70.0018,352.5494,255.5623,104.5241,-4.8989e-06,-1.51e-06,0.0,0 STARLINK-5814,1 55777U 23028AN  24034.93804318 -.00000151  00000-0 -48989-5 0  9997,2 55777  70.0018 352.5494 0002658 255.5623 104.5241 14.98331287 51986,6950.189,96.107,573.901,570.207,0.0
55777.0,STARLINK-5814,PAYLOAD,2024-02-04 06:31:27,14.98334344,0.0002742,70.0015,351.7069,265.88,94.2046,2.9836e-05,2.63e-06,0.0,0 STARLINK-5814,1 55777U 23028AN  24035.27184030  .00000263  00000-0  29836-4 0  9998,2 55777  70.0015 351.7069 0002742 265.8800  94.2046 14.98334344 52039,6950.179,96.107,573.95,570.139,0.0
55777.0,STARLINK-5814,PAYLOAD,2024-02-04 22:32:48,14.98324081,0.0002527,70.0023,350.0237,258.9466,101.1409,2.1513e-05,1.64e-06,0.0,0 STARLINK-5814,1 55777U 23028AN  24035.93944680  .00000164  00000-0  21513-4 0  9990,2 55777  70.0023 350.0237 0002527 258.9466 101.1409 14.98324081 52138,6950.211,96.107,573.833,570.32,0.0
55777.0,STARLINK-5814,PAYLOAD,2024-02-05 03:21:12,14.98314835,0.0002613,70.002,349.5184,263.9379,96.1483,0.00015319,1.735e-05,0.0,0 STARLINK-5814,1 55777U 23028AN  24036.13972934  .00001735  00000-0  15319-3 0  9997,2 55777  70.0020 349.5184 0002613 263.9379  96.1483 14.98314835 52168,6950.24,96.108,573.921,570.289,0.0
55777.0,STARLINK-5814,PAYLOAD,2024-02-05 06:33:28,14.98321169,0.0002571,70.0022,349.1823,262.5034,97.5833,9.1854e-05,1.003e-05,0.0,0 STARLINK-5814,1 55777U 23028AN  24036.27324779  .00001003  00000-0  91854-4 0  9997,2 55777  70.0022 349.1823 0002571 262.5034  97.5833 14.98321169 52186,6950.22,96.108,573.872,570.298,0.0
55777.0,STARLINK-5814,PAYLOAD,2024-02-05 22:34:48,14.98333065,0.0002709,70.0018,347.4993,267.8565,92.2284,-4.0297e-06,-1.41e-06,0.0,0 STARLINK-5814,1 55777U 23028AN  24036.94084244 -.00000141  00000-0 -40297-5 0  9991,2 55777  70.0018 347.4993 0002709 267.8565  92.2284 14.98333065 52281,6950.183,96.107,573.931,570.166,0.0
55777.0,STARLINK-5814,PAYLOAD,2024-02-06 03:23:12,14.98333392,0.0002704,70.0018,346.9943,267.5873,92.4976,1.8917e-06,-7e-07,0.0,0 STARLINK-5814,1 55777U 23028AN  24037.14112166 -.00000070  00000-0  18917-5 0  9993,2 55777  70.0018 346.9943 0002704 267.5873  92.4976 14.98333392 52311,6950.182,96.107,573.927,570.168,0.0
55777.0,STARLINK-5814,PAYLOAD,2024-02-06 06:35:28,14.98335952,0.000267,70.002,346.658,267.5786,92.5067,3.1809e-05,2.87e-06,0.0,0 STARLINK-5814,1 55777U 23028AN  24037.27463883  .00000287  00000-0  31809-4 0  9995,2 55777  70.0020 346.6580 0002670 267.5786  92.5067 14.98335952 52331,6950.174,96.107,573.895,570.184,0.0
55777.0,STARLINK-5814,PAYLOAD,2024-02-06 22:36:49,14.98326581,0.0002691,70.0023,344.9775,247.6264,112.461,-4.455e-06,-1.46e-06,0.0,0 STARLINK-5814,1 55777U 23028AN  24037.94224427 -.00000146  00000-0 -44550-5 0  9992,2 55777  70.0023 344.9775 0002691 247.6264 112.4610 14.98326581 52439,6950.203,96.107,573.939,570.198,0.0
55777.0,STARLINK-5814,PAYLOAD,2024-02-07 03:25:13,14.98327984,0.0002653,70.0024,344.4723,246.3341,113.754,1.5507e-05,9.2e-07,0.0,0 STARLINK-5814,1 55777U 23028AN  24038.14252304  .00000092  00000-0  15507-4 0  9997,2 55777  70.0024 344.4723 0002653 246.3341 113.7540 14.98327984 52465,6950.199,96.107,573.908,570.22,0.0
55777.0,STARLINK-5814,PAYLOAD,2024-02-07 13:02:02,14.98328331,0.0002357,70.003,343.4579,281.9132,78.1762,-5.4526e-05,-7.43e-06,0.0,0 STARLINK-5814,1 55777U 23028AN  24038.54308697 -.00000743  00000-0 -54526-4 0  9997,2 55777  70.0030 343.4579 0002357 281.9132  78.1762 14.98328331 52528,6950.198,96.107,573.701,570.425,0.0
55777.0,STARLINK-5814,PAYLOAD,2024-02-07 21:02:42,14.9830263,0.0002747,70.0027,342.6154,273.4943,86.5901,0.00041585,4.869e-05,0.0,0 STARLINK-5814,1 55777U 23028AN  24038.87688539  .00004869  00000-0  41585-3 0  9990,2 55777  70.0027 342.6154 0002747 273.4943  86.5901 14.98302630 52570,6950.278,96.109,574.052,570.233,0.0
